STARLINK-2170           
1 47753U 21017AH  26068.64048288  .00011649  00000+0  40470-3 0  9997
2 47753  53.1613 204.1273 0001504  64.4088 295.7068 15.30209302277880
COSMOS 2588             
1 64095U 25109A   26068.81179522  .00009169  00000+0  32611-3 0  9998
2 64095  72.9704  73.5401 0005019 308.6780  51.3966 15.29122656 44425
