[{"OBJECT_NAME":"STARLINK-2170","OBJECT_ID":"2021-017AH","EPOCH":"2026-03-09T15:22:17.720832","MEAN_MOTION":15.30209302,"ECCENTRICITY":0.0001504,"INCLINATION":53.1613,"RA_OF_ASC_NODE":204.1273,"ARG_OF_PERICENTER":64.4088,"MEAN_ANOMALY":295.7068,"EPHEMERIS_TYPE":0,"CLASSIFICATION_TYPE":"U","NORAD_CAT_ID":47753,"ELEMENT_SET_NO":999,"REV_AT_EPOCH":27788,"BSTAR":0.0004047,"MEAN_MOTION_DOT":0.00011649,"MEAN_MOTION_DDOT":0},{"OBJECT_NAME":"COSMOS 2588","OBJECT_ID":"2025-109A","EPOCH":"2026-03-09T19:28:59.107008","MEAN_MOTION":15.29122656,"ECCENTRICITY":0.0005019,"INCLINATION":72.9704,"RA_OF_ASC_NODE":73.5401,"ARG_OF_PERICENTER":308.678,"MEAN_ANOMALY":51.3966,"EPHEMERIS_TYPE":0,"CLASSIFICATION_TYPE":"U","NORAD_CAT_ID":64095,"ELEMENT_SET_NO":999,"REV_AT_EPOCH":4442,"BSTAR":0.00032611,"MEAN_MOTION_DOT":9.169e-5,"MEAN_MOTION_DDOT":0}]
